[{"OBJECT_NAME":"STARLINK-4186","OBJECT_ID":"2022-062BC","EPOCH":"2026-03-09T23:36:39.275424","MEAN_MOTION":15.08839852,"ECCENTRICITY":0.00016345,"INCLINATION":53.2188,"RA_OF_ASC_NODE":12.802,"ARG_OF_PERICENTER":93.4948,"MEAN_ANOMALY":266.6231,"EPHEMERIS_TYPE":0,"CLASSIFICATION_TYPE":"U","NORAD_CAT_ID":52880,"ELEMENT_SET_NO":999,"REV_AT_EPOCH":20611,"BSTAR":2.8197165e-5,"MEAN_MOTION_DOT":1.61e-6,"MEAN_MOTION_DDOT":0},{"OBJECT_NAME":"MINOTAUR 4 R\/B","OBJECT_ID":"2020-046E","EPOCH":"2026-03-09T23:21:28.488960","MEAN_MOTION":15.06543892,"ECCENTRICITY":0.00095926,"INCLINATION":53.9792,"RA_OF_ASC_NODE":306.0413,"ARG_OF_PERICENTER":86.078,"MEAN_ANOMALY":274.1318,"EPHEMERIS_TYPE":0,"CLASSIFICATION_TYPE":"U","NORAD_CAT_ID":45877,"ELEMENT_SET_NO":999,"REV_AT_EPOCH":23396,"BSTAR":0.00016618262,"MEAN_MOTION_DOT":2.204e-5,"MEAN_MOTION_DDOT":0}]
